{"type": "FeatureCollection", "features": [{"type": "Feature", "geometry": {"type": "Point", "coordinates": [-16.668674, 19.985257]}, "properties": {"layer": "priority_sonar", "rank": 1, "area_ha": 5158.5, "observability": 0.19, "reason": "Bottom is hidden from the satellite - requires acoustic survey"}}, {"type": "Feature", "geometry": {"type": "Point", "coordinates": [-16.343885, 19.69954]}, "properties": {"layer": "priority_sonar", "rank": 2, "area_ha": 3535.6, "observability": 0.02, "reason": "Bottom is hidden from the satellite - requires acoustic survey"}}, {"type": "Feature", "geometry": {"type": "Point", "coordinates": [-16.453718, 20.157905]}, "properties": {"layer": "priority_sonar", "rank": 3, "area_ha": 2458.8, "observability": 0.18, "reason": "Bottom is hidden from the satellite - requires acoustic survey"}}, {"type": "Feature", "geometry": {"type": "Point", "coordinates": [-16.45551, 19.792589]}, "properties": {"layer": "priority_sonar", "rank": 4, "area_ha": 2297.6, "observability": 0.01, "reason": "Bottom is hidden from the satellite - requires acoustic survey"}}, {"type": "Feature", "geometry": {"type": "Point", "coordinates": [-16.473511, 19.834716]}, "properties": {"layer": "priority_sonar", "rank": 5, "area_ha": 1851.4, "observability": 0.0, "reason": "Bottom is hidden from the satellite - requires acoustic survey"}}, {"type": "Feature", "geometry": {"type": "Point", "coordinates": [-16.656077, 20.116924]}, "properties": {"layer": "priority_sonar", "rank": 6, "area_ha": 1675.8, "observability": 0.22, "reason": "Bottom is hidden from the satellite - requires acoustic survey"}}, {"type": "Feature", "geometry": {"type": "Point", "coordinates": [-16.501952, 19.868713]}, "properties": {"layer": "priority_sonar", "rank": 7, "area_ha": 1568.3, "observability": 0.01, "reason": "Bottom is hidden from the satellite - requires acoustic survey"}}, {"type": "Feature", "geometry": {"type": "Point", "coordinates": [-16.505885, 19.93397]}, "properties": {"layer": "priority_sonar", "rank": 8, "area_ha": 1381.8, "observability": 0.01, "reason": "Bottom is hidden from the satellite - requires acoustic survey"}}, {"type": "Feature", "geometry": {"type": "Point", "coordinates": [-16.477697, 19.730683]}, "properties": {"layer": "priority_sonar", "rank": 9, "area_ha": 1378.0, "observability": 0.02, "reason": "Bottom is hidden from the satellite - requires acoustic survey"}}, {"type": "Feature", "geometry": {"type": "Point", "coordinates": [-16.492604, 19.659306]}, "properties": {"layer": "priority_sonar", "rank": 10, "area_ha": 1010.3, "observability": 0.03, "reason": "Bottom is hidden from the satellite - requires acoustic survey"}}, {"type": "Feature", "geometry": {"type": "Point", "coordinates": [-16.487941, 19.906922]}, "properties": {"layer": "priority_sonar", "rank": 11, "area_ha": 934.5, "observability": 0.01, "reason": "Bottom is hidden from the satellite - requires acoustic survey"}}, {"type": "Feature", "geometry": {"type": "Point", "coordinates": [-16.331864, 19.758356]}, "properties": {"layer": "priority_sonar", "rank": 12, "area_ha": 750.5, "observability": 0.04, "reason": "Bottom is hidden from the satellite - requires acoustic survey"}}, {"type": "Feature", "geometry": {"type": "Point", "coordinates": [-16.418376, 19.418126]}, "properties": {"layer": "priority_sonar", "rank": 13, "area_ha": 747.6, "observability": 0.13, "reason": "Bottom is hidden from the satellite - requires acoustic survey"}}, {"type": "Feature", "geometry": {"type": "Point", "coordinates": [-16.823291, 19.717851]}, "properties": {"layer": "priority_sonar", "rank": 14, "area_ha": 721.1, "observability": 0.18, "reason": "Bottom is hidden from the satellite - requires acoustic survey"}}, {"type": "Feature", "geometry": {"type": "Point", "coordinates": [-16.237445, 20.0122]}, "properties": {"layer": "priority_sonar", "rank": 15, "area_ha": 649.2, "observability": 0.05, "reason": "Bottom is hidden from the satellite - requires acoustic survey"}}, {"type": "Feature", "geometry": {"type": "Point", "coordinates": [-16.316615, 19.801406]}, "properties": {"layer": "priority_sonar", "rank": 16, "area_ha": 555.0, "observability": 0.03, "reason": "Bottom is hidden from the satellite - requires acoustic survey"}}, {"type": "Feature", "geometry": {"type": "Point", "coordinates": [-16.676317, 19.6542]}, "properties": {"layer": "priority_sonar", "rank": 17, "area_ha": 539.1, "observability": 0.21, "reason": "Bottom is hidden from the satellite - requires acoustic survey"}}, {"type": "Feature", "geometry": {"type": "Point", "coordinates": [-16.441367, 19.899327]}, "properties": {"layer": "priority_sonar", "rank": 18, "area_ha": 533.2, "observability": 0.01, "reason": "Bottom is hidden from the satellite - requires acoustic survey"}}, {"type": "Feature", "geometry": {"type": "Point", "coordinates": [-16.408841, 19.55532]}, "properties": {"layer": "priority_sonar", "rank": 19, "area_ha": 506.4, "observability": 0.01, "reason": "Bottom is hidden from the satellite - requires acoustic survey"}}, {"type": "Feature", "geometry": {"type": "Point", "coordinates": [-16.426158, 19.467562]}, "properties": {"layer": "priority_sonar", "rank": 20, "area_ha": 482.0, "observability": 0.01, "reason": "Bottom is hidden from the satellite - requires acoustic survey"}}]}