{"type": "FeatureCollection", "features": [{"type": "Feature", "geometry": {"type": "Point", "coordinates": [-16.264722, 19.865302]}, "properties": {"layer": "priority_field", "rank": 1, "area_ha": 4.5, "priority": 0.17, "ndvi_change": 0.18, "observability": 0.39, "reason": "Large change + classification near the threshold + site is observable from orbit"}}, {"type": "Feature", "geometry": {"type": "Point", "coordinates": [-16.342888, 19.805208]}, "properties": {"layer": "priority_field", "rank": 2, "area_ha": 3.8, "priority": 0.165, "ndvi_change": 0.157, "observability": 0.49, "reason": "Large change + classification near the threshold + site is observable from orbit"}}, {"type": "Feature", "geometry": {"type": "Point", "coordinates": [-16.326806, 19.83932]}, "properties": {"layer": "priority_field", "rank": 3, "area_ha": 4.0, "priority": 0.153, "ndvi_change": 0.136, "observability": 0.5, "reason": "Large change + classification near the threshold + site is observable from orbit"}}, {"type": "Feature", "geometry": {"type": "Point", "coordinates": [-16.453316, 19.644685]}, "properties": {"layer": "priority_field", "rank": 4, "area_ha": 2.7, "priority": 0.128, "ndvi_change": 0.1, "observability": 0.53, "reason": "Large change + classification near the threshold + site is observable from orbit"}}, {"type": "Feature", "geometry": {"type": "Point", "coordinates": [-16.455484, 19.649116]}, "properties": {"layer": "priority_field", "rank": 5, "area_ha": 2.8, "priority": 0.126, "ndvi_change": 0.136, "observability": 0.46, "reason": "Large change + classification near the threshold + site is observable from orbit"}}, {"type": "Feature", "geometry": {"type": "Point", "coordinates": [-16.314783, 19.78351]}, "properties": {"layer": "priority_field", "rank": 6, "area_ha": 3.6, "priority": 0.111, "ndvi_change": 0.181, "observability": 0.36, "reason": "Large change + classification near the threshold + site is observable from orbit"}}, {"type": "Feature", "geometry": {"type": "Point", "coordinates": [-16.457079, 19.654223]}, "properties": {"layer": "priority_field", "rank": 7, "area_ha": 2.4, "priority": 0.096, "ndvi_change": 0.105, "observability": 0.39, "reason": "Large change + classification near the threshold + site is observable from orbit"}}, {"type": "Feature", "geometry": {"type": "Point", "coordinates": [-16.323629, 19.836421]}, "properties": {"layer": "priority_field", "rank": 8, "area_ha": 3.1, "priority": 0.092, "ndvi_change": 0.108, "observability": 0.49, "reason": "Large change + classification near the threshold + site is observable from orbit"}}, {"type": "Feature", "geometry": {"type": "Point", "coordinates": [-16.377424, 19.673046]}, "properties": {"layer": "priority_field", "rank": 9, "area_ha": 2.3, "priority": 0.086, "ndvi_change": 0.232, "observability": 0.24, "reason": "Large change + classification near the threshold + site is observable from orbit"}}, {"type": "Feature", "geometry": {"type": "Point", "coordinates": [-16.510012, 19.891157]}, "properties": {"layer": "priority_field", "rank": 10, "area_ha": 2.0, "priority": 0.083, "ndvi_change": 0.058, "observability": 0.61, "reason": "Large change + classification near the threshold + site is observable from orbit"}}, {"type": "Feature", "geometry": {"type": "Point", "coordinates": [-16.379043, 19.674371]}, "properties": {"layer": "priority_field", "rank": 11, "area_ha": 9.7, "priority": 0.07, "ndvi_change": 0.153, "observability": 0.24, "reason": "Large change + classification near the threshold + site is observable from orbit"}}]}